H1 CPF  1  DLR 2021 09 13 10  7562 technosat            
H2  1704205 6203    42829 2021 09 13 00 00 00 2021 09 20 00 00 00    60 1 1  0 0 0
H9
10 0 59470  14400.000000  0        789593.622       -464248.163       6908560.810
10 0 59470  14460.000000  0        617669.789       -887360.611       6884136.676
10 0 59470  14520.000000  0        439474.160      -1305216.042       6830604.494
10 0 59470  14580.000000  0        255808.143      -1716007.284       6748182.210
10 0 59470  14640.000000  0         67512.143      -2117962.756       6637209.174
10 0 59470  14700.000000  0       -124538.247      -2509354.172       6498144.944
10 0 59470  14760.000000  0       -319436.229      -2888504.043       6331567.483
10 0 59470  14820.000000  0       -516247.960      -3253792.857       6138170.921
10 0 59470  14880.000000  0       -714016.911      -3603666.037       5918762.930
10 0 59470  14940.000000  0       -911768.383      -3936640.661       5674261.651
10 0 59470  15000.000000  0      -1108514.217      -4251311.916       5405692.249
10 0 59470  15060.000000  0      -1303257.710      -4546359.331       5114182.966
10 0 59470  15120.000000  0      -1494998.644      -4820552.652       4800960.651
10 0 59470  15180.000000  0      -1682738.393      -5072757.356       4467345.812
10 0 59470  15240.000000  0      -1865485.081      -5301939.745       4114747.189
10 0 59470  15300.000000  0      -2042258.816      -5507171.557       3744655.867
10 0 59470  15360.000000  0      -2212096.903      -5687634.032       3358638.988
10 0 59470  15420.000000  0      -2374059.021      -5842621.487       2958333.123
10 0 59470  15480.000000  0      -2527232.369      -5971544.378       2545437.295
10 0 59470  15540.000000  0      -2670736.702      -6073931.825       2121705.661
10 0 59470  15600.000000  0      -2803729.258      -6149433.570       1688939.912
10 0 59470  15660.000000  0      -2925409.540      -6197821.360       1248981.402
10 0 59470  15720.000000  0      -3035023.918      -6218989.705        803703.057
10 0 59470  15780.000000  0      -3131870.009      -6212956.036        355001.132
10 0 59470  15840.000000  0      -3215300.831      -6179860.277        -95213.180
10 0 59470  15900.000000  0      -3284728.692      -6119963.784       -545022.229
10 0 59470  15960.000000  0      -3339628.783      -6033647.668       -992510.430
10 0 59470  16020.000000  0      -3379542.460      -5921410.515      -1435772.767
10 0 59470  16080.000000  0      -3404080.191      -5783865.520      -1872923.222
10 0 59470  16140.000000  0      -3412924.152      -5621737.065      -2302103.103
10 0 59470  16200.000000  0      -3405830.456      -5435856.755      -2721489.235
10 0 59470  16260.000000  0      -3382630.967      -5227158.913      -3129301.930
10 0 59470  16320.000000  0      -3343234.724      -4996675.607      -3523812.691
10 0 59470  16380.000000  0      -3287628.957      -4745531.258      -3903351.613
10 0 59470  16440.000000  0      -3215879.727      -4474936.859      -4266314.463
10 0 59470  16500.000000  0      -3128132.162      -4186183.857      -4611169.434
10 0 59470  16560.000000  0      -3024610.308      -3880637.693      -4936463.519
10 0 59470  16620.000000  0      -2905616.591      -3559731.061      -5240828.484
10 0 59470  16680.000000  0      -2771530.918      -3224956.942      -5522986.434
10 0 59470  16740.000000  0      -2622809.382      -2877861.423      -5781754.941
10 0 59470  16800.000000  0      -2459982.606      -2520036.383      -6016051.739
10 0 59470  16860.000000  0      -2283653.714      -2153112.040      -6224899.004
10 0 59470  16920.000000  0      -2094495.923      -1778749.369      -6407427.114
10 0 59470  16980.000000  0      -1893249.853      -1398632.514      -6562877.895
10 0 59470  17040.000000  0      -1680720.526      -1014461.187      -6690607.440
10 0 59470  17100.000000  0      -1457774.078       -627943.077      -6790088.406
10 0 59470  17160.000000  0      -1225334.220       -240786.347      -6860911.873
10 0 59470  17220.000000  0       -984378.408        145307.783      -6902788.801
10 0 59470  17280.000000  0       -735933.709        528652.363      -6915551.040
10 0 59470  17340.000000  0       -481072.445        907581.979      -6899151.865
10 0 59470  17400.000000  0       -220907.630       1280459.860      -6853665.966
10 0 59470  17460.000000  0         43411.744       1645684.705      -6779289.082
10 0 59470  17520.000000  0        310705.672       2001697.473      -6676337.306
10 0 59470  17580.000000  0        579768.394       2346987.985      -6545245.818
10 0 59470  17640.000000  0        849373.799       2680101.233      -6386567.127
10 0 59470  17700.000000  0       1118280.897       2999643.477      -6200968.845
10 0 59470  17760.000000  0       1385239.418       3304288.050      -5989231.020
10 0 59470  17820.000000  0       1648995.532       3592780.824      -5752243.064
10 0 59470  17880.000000  0       1908297.677       3863945.389      -5491000.275
10 0 59470  17940.000000  0       2161902.428       4116687.923      -5206599.904
10 0 59470  18000.000000  0       2408580.409       4350001.710      -4900236.801
10 0 59470  18060.000000  0       2647122.228       4562971.317      -4573198.614
10 0 59470  18120.000000  0       2876344.351       4754776.330      -4226860.556
10 0 59470  18180.000000  0       3095094.946       4924694.647      -3862679.813
10 0 59470  18240.000000  0       3302259.649       5072105.361      -3482189.616
10 0 59470  18300.000000  0       3496767.276       5196491.233      -3086992.919
10 0 59470  18360.000000  0       3677595.371       5297440.618      -2678755.663
10 0 59470  18420.000000  0       3843775.512       5374648.864      -2259199.805
10 0 59470  18480.000000  0       3994398.460       5427919.298      -1830096.104
10 0 59470  18540.000000  0       4128619.054       5457163.693      -1393256.594
10 0 59470  18600.000000  0       4245660.828       5462402.223       -950526.846
10 0 59470  18660.000000  0       4344820.348       5443762.875       -503778.048
10 0 59470  18720.000000  0       4425471.216       5401480.315        -54898.966
10 0 59470  18780.000000  0       4487067.712       5335894.249        394212.194
10 0 59470  18840.000000  0       4529148.013       5247447.257        841655.965
10 0 59470  18900.000000  0       4551336.995       5136682.183       1285539.743
10 0 59470  18960.000000  0       4553348.710       5004239.151       1723985.856
10 0 59470  19020.000000  0       4534988.545       4850852.125       2155139.699
10 0 59470  19080.000000  0       4496154.853       4677344.899       2577177.860
10 0 59470  19140.000000  0       4436839.964       4484626.618       2988315.979
10 0 59470  19200.000000  0       4357130.816       4273687.039       3386816.281
10 0 59470  19260.000000  0       4257209.217       4045591.428       3770994.999
10 0 59470  19320.000000  0       4137351.567       3801475.044       4139229.467
10 0 59470  19380.000000  0       3997928.225       3542537.448       4489964.835
10 0 59470  19440.000000  0       3839402.495       3270036.656       4821720.681
10 0 59470  19500.000000  0       3662328.976       2985282.903       5133097.379
10 0 59470  19560.000000  0       3467351.386       2689632.118       5422781.770
10 0 59470  19620.000000  0       3255200.157       2384479.487       5689552.381
10 0 59470  19680.000000  0       3026689.683       2071252.867       5932284.422
10 0 59470  19740.000000  0       2782715.156       1751406.058       6149954.381
10 0 59470  19800.000000  0       2524248.990       1426412.015       6341644.145
10 0 59470  19860.000000  0       2252336.908       1097756.077       6506544.647
10 0 59470  19920.000000  0       1968093.697        766929.252       6643959.087
10 0 59470  19980.000000  0       1672698.639        435421.562       6753305.747
10 0 59470  20040.000000  0       1367390.645        104715.455       6834120.376
10 0 59470  20100.000000  0       1053463.111       -223720.782       6886058.172
10 0 59470  20160.000000  0        732258.469       -548439.561       6908895.212
10 0 59470  20220.000000  0        405162.522       -868020.328       6902529.371
10 0 59470  20280.000000  0         73598.511      -1181075.707       6866980.851
10 0 59470  20340.000000  0       -260979.013      -1486257.530       6802392.188
10 0 59470  20400.000000  0       -597090.508      -1782262.640       6709027.792
10 0 59470  20460.000000  0       -933237.941      -2067838.468       6587272.967
10 0 59470  20520.000000  0      -1267911.346      -2341788.328       6437632.447
10 0 59470  20580.000000  0      -1599595.465      -2602976.431       6260728.563
10 0 59470  20640.000000  0      -1926776.552      -2850332.675       6057299.012
10 0 59470  20700.000000  0      -2247949.285      -3082857.185       5828194.127
10 0 59470  20760.000000  0      -2561623.773      -3299624.552       5574373.660
10 0 59470  20820.000000  0      -2866332.642      -3499787.731       5296903.046
10 0 59470  20880.000000  0      -3160638.081      -3682581.529       4996949.119
10 0 59470  20940.000000  0      -3443138.757      -3847325.703       4675775.359
10 0 59470  21000.000000  0      -3712476.620      -3993427.674       4334736.758
10 0 59470  21060.000000  0      -3967343.612      -4120384.847       3975274.233
10 0 59470  21120.000000  0      -4206488.171      -4227786.482       3598908.621
10 0 59470  21180.000000  0      -4428721.546      -4315315.142       3207234.355
10 0 59470  21240.000000  0      -4632923.930      -4382747.739       2801912.747
10 0 59470  21300.000000  0      -4818050.333      -4429956.104       2384664.847
10 0 59470  21360.000000  0      -4983136.094      -4456907.050       1957263.989
10 0 59470  21420.000000  0      -5127302.036      -4463661.938       1521528.060
10 0 59470  21480.000000  0      -5249759.241      -4450375.788       1079311.576
10 0 59470  21540.000000  0      -5349813.421      -4417295.934        632497.514
99
